{
    "links": {
        "self": "http://www.neowsapp.com/rest/v1/neo/54017627?api_key=iIulBulltgU6a56xZRHN4H3l9WmuAYTsLGpBGhQ2"
    },
    "id": "54017627",
    "neo_reference_id": "54017627",
    "name": "(2020 MV2)",
    "designation": "2020 MV2",
    "nasa_jpl_url": "http://ssd.jpl.nasa.gov/sbdb.cgi?sstr=54017627",
    "absolute_magnitude_h": 24.57,
    "estimated_diameter": {
        "kilometers": {
            "estimated_diameter_min": 0.0324007435,
            "estimated_diameter_max": 0.0724502651
        },
        "meters": {
            "estimated_diameter_min": 32.4007435394,
            "estimated_diameter_max": 72.4502650757
        },
        "miles": {
            "estimated_diameter_min": 0.0201328824,
            "estimated_diameter_max": 0.0450184937
        },
        "feet": {
            "estimated_diameter_min": 106.3016554339,
            "estimated_diameter_max": 237.6977276709
        }
    },
    "is_potentially_hazardous_asteroid": false,
    "close_approach_data": [
        {
            "close_approach_date": "1925-08-01",
            "close_approach_date_full": "1925-Aug-01 01:52",
            "epoch_date_close_approach": -1401746880000,
            "relative_velocity": {
                "kilometers_per_second": "13.9182868715",
                "kilometers_per_hour": "50105.8327372852",
                "miles_per_hour": "31133.815902787"
            },
            "miss_distance": {
                "astronomical": "0.4365926141",
                "lunar": "169.8345268849",
                "kilometers": "65313325.127091967",
                "miles": "40583818.3373124646"
            },
            "orbiting_body": "Earth"
        },
        {
            "close_approach_date": "1928-07-18",
            "close_approach_date_full": "1928-Jul-18 09:44",
            "epoch_date_close_approach": -1308233760000,
            "relative_velocity": {
                "kilometers_per_second": "6.0146098188",
                "kilometers_per_hour": "21652.5953476751",
                "miles_per_hour": "13454.0807036707"
            },
            "miss_distance": {
                "astronomical": "0.0770683732",
                "lunar": "29.9795971748",
                "kilometers": "11529264.475085084",
                "miles": "7163952.7479147992"
            },
            "orbiting_body": "Earth"
        },
        {
            "close_approach_date": "2020-07-20",
            "close_approach_date_full": "2020-Jul-20 12:57",
            "epoch_date_close_approach": 1595249820000,
            "relative_velocity": {
                "kilometers_per_second": "6.3108189735",
                "kilometers_per_hour": "22718.94830468",
                "miles_per_hour": "14116.6709618719"
            },
            "miss_distance": {
                "astronomical": "0.0754536791",
                "lunar": "29.3514811699",
                "kilometers": "11287709.677023517",
                "miles": "7013857.5564058546"
            },
            "orbiting_body": "Earth"
        },
        {
            "close_approach_date": "2099-07-20",
            "close_approach_date_full": "2099-Jul-20 02:50",
            "epoch_date_close_approach": 4088199000000,
            "relative_velocity": {
                "kilometers_per_second": "6.0328460308",
                "kilometers_per_hour": "21718.2457108026",
                "miles_per_hour": "13494.8732862484"
            },
            "miss_distance": {
                "astronomical": "0.0666522014",
                "lunar": "25.9277063446",
                "kilometers": "9971027.360251018",
                "miles": "6195709.1028113284"
            },
            "orbiting_body": "Earth"
        }
    ],
    "orbital_data": {
        "orbit_id": "2",
        "orbit_determination_date": "2020-07-11 06:45:17",
        "first_observation_date": "2020-06-24",
        "last_observation_date": "2020-07-11",
        "data_arc_in_days": 17,
        "observations_used": 20,
        "orbit_uncertainty": "8",
        "minimum_orbit_intersection": ".0642765",
        "jupiter_tisserand_invariant": "5.003",
        "epoch_osculation": "2459033.5",
        "eccentricity": ".1632053516451581",
        "semi_major_axis": "1.287978896432679",
        "inclination": "11.09984122438386",
        "ascending_node_longitude": "119.5947742280076",
        "orbital_period": "533.9019998439346",
        "perihelion_distance": "1.077773847728841",
        "perihelion_argument": "168.2024429656886",
        "aphelion_distance": "1.498183945136517",
        "perihelion_time": "2459042.642235587127",
        "mean_anomaly": "353.8355638069762",
        "mean_motion": ".6742810480298481",
        "equinox": "J2000",
        "orbit_class": {
            "orbit_class_type": "AMO",
            "orbit_class_description": "Near-Earth asteroid orbits similar to that of 1221 Amor",
            "orbit_class_range": "1.017 AU < q (perihelion) < 1.3 AU"
        }
    },
    "is_sentry_object": false
}